NORAD_CAT_ID,OBJECT_NAME,OBJECT_TYPE,EPOCH,MEAN_MOTION,ECCENTRICITY,INCLINATION,RA_OF_ASC_NODE,ARG_OF_PERICENTER,MEAN_ANOMALY,BSTAR,MEAN_MOTION_DOT,MEAN_MOTION_DDOT,TLE_LINE0,TLE_LINE1,TLE_LINE2,SEMIMAJOR_AXIS,PERIOD,APOGEE,PERIGEE,DECAYED
54002.0,STARLINK-5109,PAYLOAD,2023-01-06 06:00:00,15.08809515,0.0001565999999999,53.2155,4.2947,85.8096,210.209,0.0006072,9.381e-05,0.0,0 STARLINK-5109,1 54002U 22125AQ  23006.25001157  .00009381  00000-0  60720-3 0  9994,2 54002  53.2155   4.2947 0001566  85.8096 210.2090 15.08809515 14779,6917.974,95.439,540.922,538.755,0.0
54002.0,STARLINK-5109,PAYLOAD,2023-01-06 22:00:00,15.08832074,0.0001506,53.2159,1.3001,93.7953,225.3716,0.0021466,0.00034033,0.0,0 STARLINK-5109,1 54002U 22125AQ  23006.91667824  .00034033  00000-0  21466-2 0  9991,2 54002  53.2159   1.3001 0001506  93.7953 225.3716 15.08832074  1309,6917.905,95.438,540.811,538.7280000000002,0.0
54002.0,STARLINK-5109,PAYLOAD,2023-01-07 00:00:00,15.0885966,0.0001512,53.2161,0.9263,93.4898,318.5681,-0.0010063,-0.00016276,0.0,0 STARLINK-5109,1 54002U 22125AQ  23007.00001157 -.00016276  00000-0 -10063-2 0  9995,2 54002  53.2161   0.9263 0001512  93.4898 318.5681 15.08859660 14882,6917.82,95.436,540.731,538.639,0.0
54002.0,STARLINK-5109,PAYLOAD,2023-01-07 10:53:56,15.08836894,0.0001409999999999,53.2175,358.8878,92.0276,268.0878,0.00016346,2.314e-05,0.0,0 STARLINK-5109,1 54002U 22125AQ  23007.45412772  .00002314  00000-0  16346-3 0  9990,2 54002  53.2175 358.8878 0001410  92.0276 268.0878 15.08836894 14900,6917.89,95.438,540.73,538.779,0.0
54002.0,STARLINK-5109,PAYLOAD,2023-01-08 02:47:48,15.08832939,0.0001132,53.2173,355.9142,94.0921,266.02,3.7146e-05,3.03e-06,0.0,0 STARLINK-5109,1 54002U 22125AQ  23008.11653321  .00000303  00000-0  37146-4 0  9999,2 54002  53.2173 355.9142 0001132  94.0921 266.0200 15.08832939 15050,6917.901999999999,95.438,540.55,538.984,0.0
54002.0,STARLINK-5109,PAYLOAD,2023-01-08 05:58:34,15.08833766,0.0001149,53.2174,355.3197,90.9642,269.1482,4.2231e-05,3.84e-06,0.0,0 STARLINK-5109,1 54002U 22125AQ  23008.24901315  .00000384  00000-0  42231-4 0  9992,2 54002  53.2174 355.3197 0001149  90.9642 269.1482 15.08833766 15020,6917.899,95.438,540.559,538.97,0.0
54002.0,STARLINK-5109,PAYLOAD,2023-01-09 09:00:07,15.08850163,0.0001434,53.2172,350.2645,97.1898,262.9257,7.5875e-05,9.2e-06,0.0,0 STARLINK-5109,1 54002U 22125AQ  23009.37508759  .00000920  00000-0  75875-4 0  9998,2 54002  53.2172 350.2645 0001434  97.1898 262.9257 15.08850163 15244,6917.849,95.437,540.706,538.722,0.0
54002.0,STARLINK-5109,PAYLOAD,2023-01-09 15:21:40,15.08841659,0.0001674,53.2172,349.0723,81.9411,278.1771,-4.1677e-05,-9.51e-06,0.0,0 STARLINK-5109,1 54002U 22125AQ  23009.64005364 -.00000951  00000-0 -41677-4 0  9991,2 54002  53.2172 349.0723 0001674  81.9411 278.1771 15.08841659 15289,6917.875,95.437,540.898,538.582,0.0
54002.0,STARLINK-5109,PAYLOAD,2023-01-10 08:50:55,15.08834105,0.0001411,53.2173,345.8052,97.4836,262.6316,2.5517e-05,1.18e-06,0.0,0 STARLINK-5109,1 54002U 22125AQ  23010.36870047  .00000118  00000-0  25517-4 0  9998,2 54002  53.2173 345.8052 0001411  97.4836 262.6316 15.08834105 15394,6917.898,95.438,540.74,538.7869999999998,0.0
54002.0,STARLINK-5109,PAYLOAD,2023-01-10 15:12:28,15.08836044,0.0001413,53.2166,344.6169,101.3599,258.7552,6.4658e-05,7.41e-06,0.0,0 STARLINK-5109,1 54002U 22125AQ  23010.63365859  .00000741  00000-0  64658-4 0  9999,2 54002  53.2166 344.6169 0001413 101.3599 258.7552 15.08836044 15386,6917.892,95.438,540.735,538.78,0.0
54002.0,STARLINK-5109,PAYLOAD,2023-01-11 03:55:33,15.08841269,0.000153,53.2167,342.2379,102.6436,257.4727,6.4673e-05,7.41e-06,0.0,0 STARLINK-5109,1 54002U 22125AQ  23011.16357729  .00000741  00000-0  64673-4 0  9992,2 54002  53.2167 342.2379 0001530 102.6436 257.4727 15.08841269 15518,6917.877,95.437,540.8,538.683,0.0
54002.0,STARLINK-5109,PAYLOAD,2023-01-11 10:17:04,15.088517199999998,0.0001535,53.2164,341.0472,101.4317,258.6847,0.00013345,1.837e-05,0.0,0 STARLINK-5109,1 54002U 22125AQ  23011.42852815  .00001837  00000-0  13345-3 0  9993,2 54002  53.2164 341.0472 0001535 101.4317 258.6847 15.08851720 15559,6917.845,95.437,540.771,538.648,0.0
54002.0,STARLINK-5109,PAYLOAD,2023-01-11 21:24:46,15.08853468,0.0001514,53.218,338.9627,92.2185,267.8981,0.00020574,2.989e-05,0.0,0 STARLINK-5109,1 54002U 22125AQ  23011.89220551  .00002989  00000-0  20574-3 0  9991,2 54002  53.2180 338.9627 0001514  92.2185 267.8981 15.08853468 15575,6917.839,95.437,540.752,538.6569999999998,0.0
54002.0,STARLINK-5109,PAYLOAD,2023-01-12 14:54:01,15.08836764,0.0001793,53.2156,335.6945,76.4322,283.687,-7.2828e-05,-1.447e-05,0.0,0 STARLINK-5109,1 54002U 22125AQ  23012.62085099 -.00001447  00000-0 -72828-4 0  9999,2 54002  53.2156 335.6945 0001793  76.4322 283.6870 15.08836764 15732,6917.89,95.438,540.996,538.515,0.0
54002.0,STARLINK-5109,PAYLOAD,2023-01-12 21:15:34,15.08810653,0.0001395,53.2165,334.5036,81.9682,278.1468,-0.00057765,-9.462e-05,0.0,0 STARLINK-5109,1 54002U 22125AQ  23012.88582124 -.00009462  00000-0 -57765-3 0  9995,2 54002  53.2165 334.5036 0001395  81.9682 278.1468 15.08810653 15774,6917.97,95.439,540.8,538.87,0.0
54002.0,STARLINK-5109,PAYLOAD,2023-01-13 03:37:07,15.0881206,0.0001249,53.2161,333.3143,88.3902,271.7233,-0.00052933,-8.696e-05,0.0,0 STARLINK-5109,1 54002U 22125AQ  23013.15078218 -.00008696  00000-0 -52933-3 0  9990,2 54002  53.2161 333.3143 0001249  88.3902 271.7233 15.08812060 15818,6917.965999999999,95.439,540.695,538.967,0.0
54002.0,STARLINK-5109,PAYLOAD,2023-01-13 14:44:50,15.0881085,0.0001326,53.2156,331.2329,80.2254,279.8888,6.6139e-05,7.64e-06,0.0,0 STARLINK-5109,1 54002U 22125AQ  23013.61447183  .00000764  00000-0  66139-4 0  9992,2 54002  53.2156 331.2329 0001326  80.2254 279.8888 15.08810850 15834,6917.969,95.439,540.752,538.9169999999999,0.0
54002.0,STARLINK-5109,PAYLOAD,2023-01-14 03:27:55,15.08860986,0.0001422,53.216,328.8549,74.6579,285.457,0.0022424,0.00035601,0.0,0 STARLINK-5109,1 54002U 22125AQ  23014.14439142  .00035601  00000-0  22424-2 0  9992,2 54002  53.2160 328.8549 0001422  74.6579 285.4570 15.08860986 15969,6917.816,95.436,540.665,538.698,0.0
54002.0,STARLINK-5109,PAYLOAD,2023-01-14 06:38:41,15.08877329,0.0001429,53.2159,328.2597,75.6365,284.4786,0.0026834,0.00042721,0.0,0 STARLINK-5109,1 54002U 22125AQ  23014.27686817  .00042721  00000-0  26834-2 0  9999,2 54002  53.2159 328.2597 0001429  75.6365 284.4786 15.08877329 15984,6917.766,95.435,540.62,538.643,0.0
54002.0,STARLINK-5109,PAYLOAD,2023-01-15 03:18:42,15.08866683,0.0001185,53.2161,324.394,90.126,269.9868,0.0022299,0.00035405,0.0,0 STARLINK-5109,1 54002U 22125AQ  23015.13798766  .00035405  00000-0  22299-2 0  9994,2 54002  53.2161 324.3940 0001185  90.1260 269.9868 15.08866683 16117,6917.799,95.436,540.484,538.844,0.0
54002.0,STARLINK-5109,PAYLOAD,2023-01-15 06:29:28,15.08873772,0.000136,53.2162,323.7991,91.0678,269.047,0.0022136,0.0003515,0.0,0 STARLINK-5109,1 54002U 22125AQ  23015.27046528  .00035150  00000-0  22136-2 0  9998,2 54002  53.2162 323.7991 0001360  91.0678 269.0470 15.08873772 16088,6917.776999999999,95.435,540.5830000000001,538.701,0.0
54002.0,STARLINK-5109,PAYLOAD,2023-01-16 03:09:28,15.08887608,9.47e-05,53.2162,319.933,77.7954,282.3144,0.0025898,0.00041224,0.0,0 STARLINK-5109,1 54002U 22125AQ  23016.13157807  .00041224  00000-0  25898-2 0  9994,2 54002  53.2162 319.9330 0000947  77.7954 282.3144 15.08887608 16269,6917.735,95.435,540.255,538.945,0.0
54002.0,STARLINK-5109,PAYLOAD,2023-01-16 12:41:46,15.08865091,0.0001198,53.2165,318.1493,82.6277,277.4851,0.0012244,0.00019265,0.0,0 STARLINK-5109,1 54002U 22125AQ  23016.52901620  .00019265  00000-0  12244-2 0  9998,2 54002  53.2165 318.1493 0001198  82.6277 277.4851 15.08865091 16278,6917.804,95.436,540.497,538.84,0.0
54002.0,STARLINK-5109,PAYLOAD,2023-01-16 20:38:43,15.0879073,0.0001146,53.2154,316.6623,61.0211,299.0896,-0.0006864,-0.0001118,0.0,0 STARLINK-5109,1 54002U 22125AQ  23016.86022838 -.00011180  00000-0 -68640-3 0  9992,2 54002  53.2154 316.6623 0001146  61.0211 299.0896 15.08790730 16328,6918.031,95.441,540.689,539.1030000000001,0.0
54002.0,STARLINK-5109,PAYLOAD,2023-01-17 03:00:17,15.08799046,0.0001104,53.2148,315.4739,55.9262,304.1835,0.0016428,0.00025924,0.0,0 STARLINK-5109,1 54002U 22125AQ  23017.12519820  .00025924  00000-0  16428-2 0  9999,2 54002  53.2148 315.4739 0001104  55.9262 304.1835 15.08799046 16418,6918.005999999999,95.44,540.634,539.107,0.0
54002.0,STARLINK-5109,PAYLOAD,2023-01-17 12:32:36,15.08824387,0.0001203,53.2169,313.6901,61.2624,298.8488,0.0019949,0.0003159,0.0,0 STARLINK-5109,1 54002U 22125AQ  23017.52264564  .00031590  00000-0  19949-2 0  9992,2 54002  53.2169 313.6901 0001203  61.2624 298.8488 15.08824387 16425,6917.928000000001,95.439,540.625,538.961,0.0
54002.0,STARLINK-5109,PAYLOAD,2023-01-18 02:51:04,15.08866582,0.000118,53.2158,311.0132,58.6027,301.5081,0.0020748,0.00032911,0.0,0 STARLINK-5109,1 54002U 22125AQ  23018.11880190  .00032911  00000-0  20748-2 0  9994,2 54002  53.2158 311.0132 0001180  58.6027 301.5081 15.08866582 16561,6917.799,95.436,540.48,538.8480000000001,0.0
54002.0,STARLINK-5109,PAYLOAD,2023-01-18 06:01:50,15.08887538,0.0001163,53.2154,310.4179,57.6835,302.427,0.0029045,0.00046301,0.0,0 STARLINK-5109,1 54002U 22125AQ  23018.25127792  .00046301  00000-0  29045-2 0  9998,2 54002  53.2154 310.4179 0001163  57.6835 302.4270 15.08887538 16584,6917.735,95.435,540.405,538.7959999999999,0.0
54002.0,STARLINK-5109,PAYLOAD,2023-01-18 12:23:23,15.08870995,0.0001647,53.2152,309.2256,57.2259,302.8892,0.0015647,0.00024723,0.0,0 STARLINK-5109,1 54002U 22125AQ  23018.51623903  .00024723  00000-0  15647-2 0  9999,2 54002  53.2152 309.2256 0001647  57.2259 302.8892 15.08870995 16579,6917.786,95.436,540.79,538.511,0.0
